STARLINK-3095_new
1 19160C 21082AG  21326.13891660 -.00652021  00000-0 -11484-1 0  3262
2 19160  69.9999 293.3360 0003478 274.2985  47.5656 15.50924596    18
STARLINK-3095_old
1 29160C 21082AG  21325.19139030 -.00650871  00000-0 -10936-1 0  3254
2 29160  69.9999 295.9295 0003447 275.2314 155.4005 15.52252249    14
